TRITON-1                
1 39427U 13066M   26160.25932449  .00002545  00000+0  30912-3 0  9997
2 39427  97.8246  70.2464 0088301 260.2089  98.9144 14.81681542672913
GOMX-1                  
1 39430U 13066Q   26160.28704166  .00001600  00000+0  24472-3 0  9992
2 39430  97.6494   1.2481 0130138 102.6304 258.9490 14.69429819668750
CUBEBUG-2 (LO-74)       
1 39440U 13066AA  26160.09167476  .00003409  00000+0  31702-3 0  9992
2 39440  97.8903 109.0360 0059191  55.3304 305.3474 14.93697738675788
NEE-02 KRYSAOR          
1 39441U 13066AB  26160.06484735  .00001853  00000+0  20686-3 0  9990
2 39441  97.8887  99.3379 0067699  96.1920 264.7013 14.86583594674995
FUNCUBE-1 (AO-73)       
1 39444U 13066AE  26160.16786605  .00005048  00000+0  31574-3 0  9993
2 39444  97.8270 131.4468 0034829 228.8451 130.9771 15.09393647678457
UWE-3                   
1 39446U 13066AG  26160.12782108  .00003499  00000+0  30256-3 0  9999
2 39446  97.8686 116.1479 0048769 348.2293  11.7784 14.96959057676378
SMDC ONE 2.4            
1 39469U 13072H   26160.29891061  .00007746  00000+0  30300-3 0  9997
2 39469 120.4934 321.6312 0144185  10.6177 349.7893 15.18033237116632
COSMOS 2488 (RODNIK-S 7)
1 39483U 13076A   26160.22972303 -.00000021  00000+0 -22186-3 0  9993
2 39483  82.4834 173.6529 0020749 111.6500 248.6792 12.42905206564900
COSMOS 2489 (RODNIK-S 8)
1 39484U 13076B   26160.28525297 -.00000091  00000+0 -73203-3 0  9999
2 39484  82.4871 174.9945 0022577 111.6290 248.7197 12.42878867564963
COSMOS 2490 (RODNIK-S 9)
1 39485U 13076C   26160.25712994 -.00000060  00000+0 -50546-3 0  9990
2 39485  82.4818 173.0829 0022551 126.6525 233.6633 12.42877394564899
KAZEOSAT 1              
1 39731U 14024A   26160.31999278  .00000221  00000+0  80246-4 0  9995
2 39731  98.3201 232.9626 0001460  75.5890 284.5462 14.42077314637429
COSMOS 2496 (RODNIK-S *)
1 39761U 14028A   26160.29516725  .00000118  00000+0  77691-3 0  9995
2 39761  82.4444 113.6740 0021255  95.0926 265.2580 12.42878594546533
COSMOS 2497 (RODNIK-S *)
1 39762U 14028B   26160.27054847  .00000112  00000+0  73430-3 0  9997
2 39762  82.4492 115.3761 0021844  90.4077 269.9506 12.42894176546532
COSMOS 2498 (RODNIK-S *)
1 39763U 14028C   26160.24869807  .00000045  00000+0  25276-3 0  9995
2 39763  82.4454 113.8804 0022541  90.0960 270.2703 12.42979989546567
HODOYOSHI-4             
1 40011U 14033B   26160.30142759  .00000371  00000+0  45783-4 0  9994
2 40011  97.5460 345.5050 0023182 335.6399  24.3721 14.88108308647631
UNISAT-6                
1 40012U 14033C   26160.13227692  .00002442  00000+0  26550-3 0  9997
2 40012  97.7870 312.9873 0046442  95.0707 265.5813 14.88202581644966
DEIMOS-2                
1 40013U 14033D   26160.27847920  .00002091  00000+0  20273-3 0  9991
2 40013  97.5840  35.0449 0002048  59.1237 301.0184 14.93708127636542
BUGSAT-1 (TITA)         
1 40014U 14033E   26160.24533926  .00005586  00000+0  29617-3 0  9990
2 40014  98.0418 252.3302 0027477 205.5281 154.4595 15.15501136654633
SAUDISAT 4              
1 40016U 14033G   26160.27379183  .00000676  00000+0  95581-4 0  9997
2 40016  97.7574 306.6828 0046228  98.9378 261.7071 14.79533680644904
APRIZESAT 9             
1 40018U 14033J   26160.19840912  .00000598  00000+0  95359-4 0  9999
2 40018  97.9050 293.5927 0065161 225.1280 134.4627 14.74203721642382
BRITE-CA1 (TORONTO)     
1 40020U 14033L   26160.29209763  .00000620  00000+0  10111-3 0  9994
2 40020  97.9729 289.3660 0077426 302.7376  56.6385 14.72665739641058
